{
  "norad_id": 55309,
  "name": "STARLINK-5315",
  "history": [
    {
      "epoch": "2026-03-28T21:38:52.330848Z",
      "apogee_km": 574.0145694423773,
      "perigee_km": 570.0903534686495,
      "latitude_deg": 3.15063842464279e-05,
      "longitude_deg": 164.84108386133252,
      "height_km": 574.4153177885454,
      "semi_major_axis_km": 6950.189461455513,
      "eccentricity": 0.00028231,
      "inclination_deg": 69.9993,
      "raan_deg": 315.8749,
      "arg_perigee_deg": 271.8797,
      "mean_anomaly_deg": 88.2039,
      "mean_motion_rev_day": 14.98331109
    },
    {
      "epoch": "2026-03-29T00:51:08.387136Z",
      "apogee_km": 574.0323355191495,
      "perigee_km": 570.0679487732696,
      "latitude_deg": -3.362762765570082e-05,
      "longitude_deg": 116.3058565635227,
      "height_km": 574.4122263271531,
      "semi_major_axis_km": 6950.187142146209,
      "eccentricity": 0.0002852,
      "inclination_deg": 69.999,
      "raan_deg": 315.5382,
      "arg_perigee_deg": 271.8834,
      "mean_anomaly_deg": 88.1998,
      "mean_motion_rev_day": 14.98331859
    },
    {
      "epoch": "2026-03-30T00:53:10.600800Z",
      "apogee_km": 574.0667053066481,
      "perigee_km": 570.0758957005,
      "latitude_deg": -9.65932964461643e-07,
      "longitude_deg": 112.2831061385554,
      "height_km": 574.4919562060351,
      "semi_major_axis_km": 6950.208300503574,
      "eccentricity": 0.0002871,
      "inclination_deg": 69.9985,
      "raan_deg": 313.0117,
      "arg_perigee_deg": 270.1883,
      "mean_anomaly_deg": 89.8947,
      "mean_motion_rev_day": 14.98325017
    },
    {
      "epoch": "2026-03-30T00:53:10.601664Z",
      "apogee_km": 574.0663577962341,
      "perigee_km": 570.076243210915,
      "latitude_deg": -6.383852303700619e-06,
      "longitude_deg": 112.28310056734936,
      "height_km": 574.491957348829,
      "semi_major_axis_km": 6950.208300503574,
      "eccentricity": 0.00028705,
      "inclination_deg": 69.9985,
      "raan_deg": 313.0117,
      "arg_perigee_deg": 270.1883,
      "mean_anomaly_deg": 89.8947,
      "mean_motion_rev_day": 14.98325017
    },
    {
      "epoch": "2026-03-30T21:42:55.509696Z",
      "apogee_km": 574.0788854778639,
      "perigee_km": 570.0641670247605,
      "latitude_deg": -1.5685325993146e-05,
      "longitude_deg": 156.8036589734406,
      "height_km": 574.4402246882536,
      "semi_major_axis_km": 6950.208526251312,
      "eccentricity": 0.00028882,
      "inclination_deg": 69.9985,
      "raan_deg": 310.8248,
      "arg_perigee_deg": 271.6707,
      "mean_anomaly_deg": 88.4121,
      "mean_motion_rev_day": 14.98324944
    },
    {
      "epoch": "2026-03-31T13:44:16.402848Z",
      "apogee_km": 574.0490671372254,
      "perigee_km": 570.1374775399536,
      "latitude_deg": 2.9359133317102368e-05,
      "longitude_deg": -85.8748980805988,
      "height_km": 574.4573984215097,
      "semi_major_axis_km": 6950.230272338589,
      "eccentricity": 0.0002814,
      "inclination_deg": 69.9984,
      "raan_deg": 309.1413,
      "arg_perigee_deg": 271.846,
      "mean_anomaly_deg": 88.2377,
      "mean_motion_rev_day": 14.98317912
    },
    {
      "epoch": "2026-04-01T20:10:45.760224Z",
      "apogee_km": 573.7992299838761,
      "perigee_km": 570.0976144879924,
      "latitude_deg": -3.853173194763385e-06,
      "longitude_deg": 173.0545816378172,
      "height_km": 574.4362190116487,
      "semi_major_axis_km": 6950.085422235934,
      "eccentricity": 0.0002663,
      "inclination_deg": 69.998,
      "raan_deg": 305.9433,
      "arg_perigee_deg": 268.1181,
      "mean_anomaly_deg": 91.9673,
      "mean_motion_rev_day": 14.98364753
    },
    {
      "epoch": "2026-04-02T20:12:49.048704Z",
      "apogee_km": 574.2628991145866,
      "perigee_km": 569.8411888448054,
      "latitude_deg": -3.861377145592624e-05,
      "longitude_deg": 169.02801639519913,
      "height_km": 574.6337414123897,
      "semi_major_axis_km": 6950.189043979695,
      "eccentricity": 0.0003181,
      "inclination_deg": 69.9978,
      "raan_deg": 303.4175,
      "arg_perigee_deg": 266.0005,
      "mean_anomaly_deg": 94.079,
      "mean_motion_rev_day": 14.98331244
    },
    {
      "epoch": "2026-04-02T21:48:57.004704Z",
      "apogee_km": 574.2184224286684,
      "perigee_km": 569.8790044766165,
      "latitude_deg": 6.257002519659716e-05,
      "longitude_deg": 144.7609026463612,
      "height_km": 574.6407440503473,
      "semi_major_axis_km": 6950.185713452642,
      "eccentricity": 0.00031218,
      "inclination_deg": 69.9978,
      "raan_deg": 303.2493,
      "arg_perigee_deg": 265.6492,
      "mean_anomaly_deg": 94.4311,
      "mean_motion_rev_day": 14.98332321
    },
    {
      "epoch": "2026-04-03T18:38:41.503200Z",
      "apogee_km": 574.2360571663439,
      "perigee_km": 569.9130255876089,
      "latitude_deg": 1.962875457038424e-05,
      "longitude_deg": -170.71794105224387,
      "height_km": 574.67411249597,
      "semi_major_axis_km": 6950.211541376976,
      "eccentricity": 0.000311,
      "inclination_deg": 69.9983,
      "raan_deg": 301.0613,
      "arg_perigee_deg": 265.4327,
      "mean_anomaly_deg": 94.6477,
      "mean_motion_rev_day": 14.98323969
    },
    {
      "epoch": "2026-04-03T21:50:57.745248Z",
      "apogee_km": 574.247286262721,
      "perigee_km": 569.907016529457,
      "latitude_deg": -3.167091918416531e-05,
      "longitude_deg": 140.74596054815413,
      "height_km": 574.6743091122174,
      "semi_major_axis_km": 6950.214151396089,
      "eccentricity": 0.00031224,
      "inclination_deg": 69.9984,
      "raan_deg": 300.7245,
      "arg_perigee_deg": 265.5154,
      "mean_anomaly_deg": 94.5648,
      "mean_motion_rev_day": 14.98323125
    },
    {
      "epoch": "2026-04-05T13:54:19.324512Z",
      "apogee_km": 574.2529790994768,
      "perigee_km": 569.8751864414617,
      "latitude_deg": -1.7298955740601748e-05,
      "longitude_deg": -105.9480910734312,
      "height_km": 574.6574395216279,
      "semi_major_axis_km": 6950.201082770469,
      "eccentricity": 0.00031494,
      "inclination_deg": 69.9982,
      "raan_deg": 296.5154,
      "arg_perigee_deg": 265.6541,
      "mean_anomaly_deg": 94.4258,
      "mean_motion_rev_day": 14.98327351
    },
    {
      "epoch": "2026-04-05T20:18:51.564096Z",
      "apogee_km": 574.2445403781621,
      "perigee_km": 569.879815294481,
      "latitude_deg": -1.6416316581475888e-05,
      "longitude_deg": 156.98107072052562,
      "height_km": 574.6483453770196,
      "semi_major_axis_km": 6950.199177836322,
      "eccentricity": 0.000314,
      "inclination_deg": 69.9982,
      "raan_deg": 295.8421,
      "arg_perigee_deg": 265.8301,
      "mean_anomaly_deg": 94.2499,
      "mean_motion_rev_day": 14.98327967
    },
    {
      "epoch": "2026-04-05T23:31:07.692960Z",
      "apogee_km": 574.2398656381038,
      "perigee_km": 569.8829252679616,
      "latitude_deg": -7.302815809005306e-05,
      "longitude_deg": 108.44554305974026,
      "height_km": 574.6438666236392,
      "semi_major_axis_km": 6950.198395453032,
      "eccentricity": 0.00031344,
      "inclination_deg": 69.9982,
      "raan_deg": 295.5054,
      "arg_perigee_deg": 265.9201,
      "mean_anomaly_deg": 94.1599,
      "mean_motion_rev_day": 14.9832822
    },
    {
      "epoch": "2026-04-07T12:22:13.104480Z",
      "apogee_km": 574.1494359352282,
      "perigee_km": 569.9669474727634,
      "latitude_deg": -3.767402619884018e-05,
      "longitude_deg": -89.71203362863459,
      "height_km": 574.6562039619861,
      "semi_major_axis_km": 6950.195191703995,
      "eccentricity": 0.00030089,
      "inclination_deg": 69.9983,
      "raan_deg": 291.6338,
      "arg_perigee_deg": 265.3193,
      "mean_anomaly_deg": 94.7622,
      "mean_motion_rev_day": 14.98329256
    },
    {
      "epoch": "2026-04-07T20:22:53.419296Z",
      "apogee_km": 574.1537900083358,
      "perigee_km": 569.9628222387446,
      "latitude_deg": 2.2235658507724437e-05,
      "longitude_deg": 148.94930044682806,
      "height_km": 574.6611955022059,
      "semi_major_axis_km": 6950.19530612354,
      "eccentricity": 0.0003015,
      "inclination_deg": 69.9983,
      "raan_deg": 290.7921,
      "arg_perigee_deg": 265.195,
      "mean_anomaly_deg": 94.8865,
      "mean_motion_rev_day": 14.98329219
    },
    {
      "epoch": "2026-04-08T14:00:22.009248Z",
      "apogee_km": 574.1621948256497,
      "perigee_km": 569.9409283008981,
      "latitude_deg": 1.5404016018554844e-05,
      "longitude_deg": -117.99534601444823,
      "height_km": 574.6213333905812,
      "semi_major_axis_km": 6950.188561563274,
      "eccentricity": 0.00030368,
      "inclination_deg": 69.9981,
      "raan_deg": 288.9404,
      "arg_perigee_deg": 266.1314,
      "mean_anomaly_deg": 93.9498,
      "mean_motion_rev_day": 14.983314
    },
    {
      "epoch": "2026-04-09T18:50:47.175936Z",
      "apogee_km": 574.1879512687037,
      "perigee_km": 569.9247026819357,
      "latitude_deg": -1.9601564259068002e-05,
      "longitude_deg": 165.18524651975002,
      "height_km": 574.611138654033,
      "semi_major_axis_km": 6950.193326975319,
      "eccentricity": 0.0003067,
      "inclination_deg": 69.998,
      "raan_deg": 285.9103,
      "arg_perigee_deg": 266.5731,
      "mean_anomaly_deg": 93.5077,
      "mean_motion_rev_day": 14.98329859
    },
    {
      "epoch": "2026-04-10T06:03:43.595424Z",
      "apogee_km": 574.1897068485832,
      "perigee_km": 569.920064969232,
      "latitude_deg": 3.613701493263536e-05,
      "longitude_deg": -4.689227014059945,
      "height_km": 574.6034458232665,
      "semi_major_axis_km": 6950.191885908907,
      "eccentricity": 0.00030716,
      "inclination_deg": 69.998,
      "raan_deg": 284.7315,
      "arg_perigee_deg": 266.7463,
      "mean_anomaly_deg": 93.3345,
      "mean_motion_rev_day": 14.98330325
    }
  ]
}